CRE (WAAS/PRN 138)      
1 28868U 05036A   24360.50776951 -.00000049  00000+0  00000+0 0  9993
2 28868   2.9275  83.3017 0001165 197.6907 249.0264  1.00271895 41053
IOR-W (EGNOS/PRN 126)   
1 28899U 05044A   24360.58725706 -.00000237  00000+0  00000+0 0  9995
2 28899   4.4078  43.0810 0002935 238.1694 168.2337  1.00271167 70124
GSAT-8 (GAGAN/PRN 127)  
1 37605U 11022A   24360.54000220  .00000111  00000+0  00000+0 0  9996
2 37605   0.7350  88.7849 0008573 181.7506  73.4833  1.00273230 47819
LUCH 5A (SDCM/PRN 140)  
1 37951U 11074B   24360.55933007 -.00000028  00000+0  00000+0 0  9994
2 37951   7.3767  81.9628 0004295 177.1186 203.6778  1.00271875 47658
SES-5 (EGNOS/PRN 136)   
1 38652U 12036A   24360.40466204  .00000060  00000+0  00000+0 0  9991
2 38652   0.0575 302.6549 0001863 321.9211 340.4739  1.00270774 39076
GSAT-10 (GAGAN/PRN 128) 
1 38779U 12051B   24360.40264400 -.00000139  00000+0  00000+0 0  9990
2 38779   0.0835 265.7532 0002340 208.4141 208.2314  1.00272703 44696
LUCH 5B (SDCM/PRN 125)  
1 38977U 12061A   24360.41577355 -.00000118  00000+0  00000+0 0  9995
2 38977   9.3093  55.0054 0005454 185.9614 346.7806  1.00273050 44203
ASTRA 5B (EGNOS/PRN 123)
1 39617U 14011B   24360.31932553  .00000164  00000+0  00000+0 0  9998
2 39617   0.0555 322.2685 0004263 309.7685 320.7231  1.00271386 39260
LUCH 5V (SDCM/PRN 141)  
1 39727U 14023A   24360.54790832 -.00000244  00000+0  00000+0 0  9990
2 39727   3.7821  74.6264 0004425 216.0924  95.7439  1.00268330 38954
GSAT-15 (GAGAN/PRN 139) 
1 41028U 15065A   24360.33313955 -.00000232  00000+0  00000+0 0  9995
2 41028   0.0524 267.6998 0002257 340.5804  59.4750  1.00273391 33399
E 117 W B (WAAS/PRN 131)
1 41589U 16038B   24358.36368869  .00000009  00000+0  00000+0 0  9993
2 41589   0.0043 166.7528 0000130 220.2574  79.3113  1.00270105 31258
SES-15 (WAAS/PRN 133)   
1 42709U 17026A   24358.28433337  .00000079  00000+0  00000+0 0  9997
2 42709   0.0202  19.4492 0000579 207.5361 198.5432  1.00275886  2014
QZS-2 (QZSS/PRN 194)    
1 42738U 17028A   24359.57720494 -.00000148  00000+0  00000+0 0  9995
2 42738  40.2681 251.0122 0756017 269.5721 282.2810  1.00281571  2211
QZS-3 (QZSS/PRN 199)    
1 42917U 17048A   24360.58316832 -.00000320  00000+0  00000+0 0  9998
2 42917   0.0758 219.8564 0002103  61.1951 150.4650  1.00275707 26962
QZS-4 (QZSS/PRN 195)    
1 42965U 17062A   24360.32437744 -.00000337  00000+0  00000+0 0  9993
2 42965  40.4229 350.3602 0751900 271.8604  84.5997  1.00249006 26415
BEIDOU-3 G1 (PRN 130)   
1 43683U 18085A   24360.58776416 -.00000252  00000+0  00000+0 0  9993
2 43683   2.6676 102.9539 0001185  50.5246 292.7687  1.00270542 22656
BEIDOU-3 G2 (PRN 144)   
1 45344U 20017A   24360.54495439 -.00000117  00000+0  00000+0 0  9996
2 45344   2.5846  36.1370 0004180 232.2560 102.3476  1.00272360 17855
BEIDOU-3 G3 (PRN 143)   
1 45807U 20040A   24360.57011676 -.00000328  00000+0  00000+0 0  9990
2 45807   1.1611  58.1461 0003719 304.9812  47.2561  1.00271604 16663
GALAXY 30 (WAAS/PRN 135)
1 46114U 20056C   24360.43279156  .00000064  00000+0  00000+0 0  9999
2 46114   0.0145  33.4913 0002019 241.0916 210.6382  1.00272594 15891
QZS-1R (QZSS/PRN 196)   
1 49336U 21096A   24360.58734911 -.00000263  00000+0  00000+0 0  9996
2 49336  36.3439  87.6384 0755794 271.5115  81.4740  1.00257648 11616
